{"type": "FeatureCollection", "features": [ {"type": "Feature", "properties": {"norad_id": 44543, "name": "BEIDOU-3 M23 (C45)", "group": "beidou", "lat": 26.92578938478164, "lon": -12.794010743028824, "alt_km": 21533.552114258204, "timestamp": "2025-12-25T14:48:25.042701+00:00", "meta": {"OBJECT_NAME": "BEIDOU-3 M23 (C45)", "OBJECT_ID": "2019-061B", "EPOCH": "2025-12-25T03:38:38.812704", "MEAN_MOTION": 1.86227443, "ECCENTRICITY": 0.0006014, "INCLINATION": 54.3997, "RA_OF_ASC_NODE": 188.5655, "ARG_OF_PERICENTER": 25.8754, "MEAN_ANOMALY": 168.3625, "EPHEMERIS_TYPE": 0, "CLASSIFICATION_TYPE": "U", "NORAD_CAT_ID": 44543, "ELEMENT_SET_NO": 999, "REV_AT_EPOCH": 4255, "BSTAR": 0, "MEAN_MOTION_DOT": 1.1e-06, "MEAN_MOTION_DDOT": 0}, "tle": {"line1": "1 44543U 19061B   25359.15183811  .00000110  00000+0  00000+0 0  9999", "line2": "2 44543  54.3997 188.5655 0006014  25.8754 168.3625  1.86227443 42553"}}, "geometry": {"type": "Point", "coordinates": [-12.794010743028824, 26.92578938478164]}}, {"type": "Feature", "properties": {"norad_id": 44793, "name": "BEIDOU-3 M22 (C44)", "group": "beidou", "lat": -15.62856651532787, "lon": -65.76121910906502, "alt_km": 21517.79337201711, "timestamp": "2025-12-25T14:48:25.042711+00:00", "meta": {"OBJECT_NAME": "BEIDOU-3 M22 (C44)", "OBJECT_ID": "2019-078A", "EPOCH": "2025-12-22T23:04:03.320256", "MEAN_MOTION": 1.86232206, "ECCENTRICITY": 0.00060944, "INCLINATION": 54.0989, "RA_OF_ASC_NODE": 306.0279, "ARG_OF_PERICENTER": 24.0205, "MEAN_ANOMALY": 336.0117, "EPHEMERIS_TYPE": 0, "CLASSIFICATION_TYPE": "U", "NORAD_CAT_ID": 44793, "ELEMENT_SET_NO": 999, "REV_AT_EPOCH": 4136, "BSTAR": 0, "MEAN_MOTION_DOT": -5.4e-07, "MEAN_MOTION_DDOT": 0}, "tle": {"line1": "1 44793U 19078A   25356.96114954 -.00000054  00000+0  00000+0 0  9990", "line2": "2 44793  54.0989 306.0279 0006094  24.0205 336.0117  1.86232206 41368"}}, "geometry": {"type": "Point", "coordinates": [-65.76121910906502, -15.62856651532787]}}, {"type": "Feature", "properties": {"norad_id": 44794, "name": "BEIDOU-3 M21 (C43)", "group": "beidou", "lat": -48.71299797527829, "lon": -178.5381710346741, "alt_km": 21540.575521919745, "timestamp": "2025-12-25T14:48:25.042721+00:00", "meta": {"OBJECT_NAME": "BEIDOU-3 M21 (C43)", "OBJECT_ID": "2019-078B", "EPOCH": "2025-12-24T17:02:19.367232", "MEAN_MOTION": 1.86227908, "ECCENTRICITY": 0.00042825, "INCLINATION": 54.0707, "RA_OF_ASC_NODE": 305.9315, "ARG_OF_PERICENTER": 12.8076, "MEAN_ANOMALY": 347.2122, "EPHEMERIS_TYPE": 0, "CLASSIFICATION_TYPE": "U", "NORAD_CAT_ID": 44794, "ELEMENT_SET_NO": 999, "REV_AT_EPOCH": 4140, "BSTAR": 0, "MEAN_MOTION_DOT": -5.2e-07, "MEAN_MOTION_DDOT": 0}, "tle": {"line1": "1 44794U 19078B   25358.70994638 -.00000052  00000+0  00000+0 0  9998", "line2": "2 44794  54.0707 305.9315 0004282  12.8076 347.2122  1.86227908 41402"}}, "geometry": {"type": "Point", "coordinates": [-178.5381710346741, -48.71299797527829]}}, {"type": "Feature", "properties": {"norad_id": 44864, "name": "BEIDOU-3 M19 (C41)", "group": "beidou", "lat": 55.954002978333506, "lon": 147.85292194378562, "alt_km": 21569.41650164476, "timestamp": "2025-12-25T14:48:25.042731+00:00", "meta": {"OBJECT_NAME": "BEIDOU-3 M19 (C41)", "OBJECT_ID": "2019-090A", "EPOCH": "2025-12-24T13:05:33.212256", "MEAN_MOTION": 1.86231537, "ECCENTRICITY": 0.00184016, "INCLINATION": 56.4026, "RA_OF_ASC_NODE": 68.5704, "ARG_OF_PERICENTER": 285.2046, "MEAN_ANOMALY": 160.4424, "EPHEMERIS_TYPE": 0, "CLASSIFICATION_TYPE": "U", "NORAD_CAT_ID": 44864, "ELEMENT_SET_NO": 999, "REV_AT_EPOCH": 4098, "BSTAR": 0, "MEAN_MOTION_DOT": -2.5e-07, "MEAN_MOTION_DDOT": 0}, "tle": {"line1": "1 44864U 19090A   25358.54552329 -.00000025  00000+0  00000+0 0  9999", "line2": "2 44864  56.4026  68.5704 0018401 285.2046 160.4424  1.86231537 40980"}}, "geometry": {"type": "Point", "coordinates": [147.85292194378562, 55.954002978333506]}}, {"type": "Feature", "properties": {"norad_id": 44865, "name": "BEIDOU-3 M20 (C42)", "group": "beidou", "lat": 5.450690461340405, "lon": -115.04592695705968, "alt_km": 21551.676999069183, "timestamp": "2025-12-25T14:48:25.042741+00:00", "meta": {"OBJECT_NAME": "BEIDOU-3 M20 (C42)", "OBJECT_ID": "2019-090B", "EPOCH": "2025-12-24T09:14:17.322144", "MEAN_MOTION": 1.86231611, "ECCENTRICITY": 0.00155264, "INCLINATION": 56.4041, "RA_OF_ASC_NODE": 68.61, "ARG_OF_PERICENTER": 297.3537, "MEAN_ANOMALY": 130.233, "EPHEMERIS_TYPE": 0, "CLASSIFICATION_TYPE": "U", "NORAD_CAT_ID": 44865, "ELEMENT_SET_NO": 999, "REV_AT_EPOCH": 4096, "BSTAR": 0, "MEAN_MOTION_DOT": -2.4e-07, "MEAN_MOTION_DDOT": 0}, "tle": {"line1": "1 44865U 19090B   25358.38492271 -.00000024  00000+0  00000+0 0  9990", "line2": "2 44865  56.4041  68.6100 0015526 297.3537 130.2330  1.86231611 40965"}}, "geometry": {"type": "Point", "coordinates": [-115.04592695705968, 5.450690461340405]}}, {"type": "Feature", "properties": {"norad_id": 45344, "name": "BEIDOU-3 G2 (C60)", "group": "beidou", "lat": -0.3259358904305199, "lon": 36.54728733810523, "alt_km": 35789.82920061341, "timestamp": "2025-12-25T14:48:25.042751+00:00", "meta": {"OBJECT_NAME": "BEIDOU-3 G2 (C60)", "OBJECT_ID": "2020-017A", "EPOCH": "2025-12-25T05:18:38.546208", "MEAN_MOTION": 1.00272266, "ECCENTRICITY": 0.00021063, "INCLINATION": 2.519, "RA_OF_ASC_NODE": 44.1259, "ARG_OF_PERICENTER": 237.0477, "MEAN_ANOMALY": 332.517, "EPHEMERIS_TYPE": 0, "CLASSIFICATION_TYPE": "U", "NORAD_CAT_ID": 45344, "ELEMENT_SET_NO": 999, "REV_AT_EPOCH": 2151, "BSTAR": 0, "MEAN_MOTION_DOT": -1.2e-06, "MEAN_MOTION_DDOT": 0}, "tle": {"line1": "1 45344U 20017A   25359.22127947 -.00000120  00000+0  00000+0 0  9990", "line2": "2 45344   2.5190  44.1259 0002106 237.0477 332.5170  1.00272266 21519"}}, "geometry": {"type": "Point", "coordinates": [36.54728733810523, -0.3259358904305199]}}, {"type": "Feature", "properties": {"norad_id": 45807, "name": "BEIDOU-3 G3 (C61)", "group": "beidou", "lat": 0.028163139308515363, "lon": 67.0541510084417, "alt_km": 35769.99198987694, "timestamp": "2025-12-25T14:48:25.042761+00:00", "meta": {"OBJECT_NAME": "BEIDOU-3 G3 (C61)", "OBJECT_ID": "2020-040A", "EPOCH": "2025-12-25T06:44:37.184352", "MEAN_MOTION": 1.00267527, "ECCENTRICITY": 0.00065935, "INCLINATION": 2.0195, "RA_OF_ASC_NODE": 66.6879, "ARG_OF_PERICENTER": 309.0076, "MEAN_ANOMALY": 290.0312, "EPHEMERIS_TYPE": 0, "CLASSIFICATION_TYPE": "U", "NORAD_CAT_ID": 45807, "ELEMENT_SET_NO": 999, "REV_AT_EPOCH": 2032, "BSTAR": 0, "MEAN_MOTION_DOT": -3.33e-06, "MEAN_MOTION_DDOT": 0}, "tle": {"line1": "1 45807U 20040A   25359.28098593 -.00000333  00000+0  00000+0 0  9996", "line2": "2 45807   2.0195  66.6879 0006593 309.0076 290.0312  1.00267527 20327"}}, "geometry": {"type": "Point", "coordinates": [67.0541510084417, 0.028163139308515363]}}, {"type": "Feature", "properties": {"norad_id": 56564, "name": "BEIDOU-3 G4 (C62)", "group": "beidou", "lat": 0.10832191332766866, "lon": 116.50163151344103, "alt_km": 35779.628509080045, "timestamp": "2025-12-25T14:48:25.042772+00:00", "meta": {"OBJECT_NAME": "BEIDOU-3 G4 (C62)", "OBJECT_ID": "2023-066A", "EPOCH": "2025-12-25T04:17:38.775264", "MEAN_MOTION": 1.00270858, "ECCENTRICITY": 0.00025678, "INCLINATION": 0.7893, "RA_OF_ASC_NODE": 303.0124, "ARG_OF_PERICENTER": 225.1679, "MEAN_ANOMALY": 150.2284, "EPHEMERIS_TYPE": 0, "CLASSIFICATION_TYPE": "U", "NORAD_CAT_ID": 56564, "ELEMENT_SET_NO": 999, "REV_AT_EPOCH": 965, "BSTAR": 0, "MEAN_MOTION_DOT": -9e-07, "MEAN_MOTION_DDOT": 0}, "tle": {"line1": "1 56564U 23066A   25359.17892101 -.00000090  00000+0  00000+0 0  9994", "line2": "2 56564   0.7893 303.0124 0002567 225.1679 150.2284  1.00270858  9653"}}, "geometry": {"type": "Point", "coordinates": [116.50163151344103, 0.10832191332766866]}}, {"type": "Feature", "properties": {"norad_id": 58654, "name": "BEIDOU-3 M28 (C50)", "group": "beidou", "lat": -12.89361914405255, "lon": -102.80322092979712, "alt_km": 21528.6343284679, "timestamp": "2025-12-25T14:48:25.042782+00:00", "meta": {"OBJECT_NAME": "BEIDOU-3 M28 (C50)", "OBJECT_ID": "2023-207A", "EPOCH": "2025-12-23T17:08:25.533024", "MEAN_MOTION": 1.86229696, "ECCENTRICITY": 0.00028713, "INCLINATION": 55.5937, "RA_OF_ASC_NODE": 68.2298, "ARG_OF_PERICENTER": 275.1516, "MEAN_ANOMALY": 84.8693, "EPHEMERIS_TYPE": 0, "CLASSIFICATION_TYPE": "U", "NORAD_CAT_ID": 58654, "ELEMENT_SET_NO": 999, "REV_AT_EPOCH": 1357, "BSTAR": 0, "MEAN_MOTION_DOT": -2.6e-07, "MEAN_MOTION_DDOT": 0}, "tle": {"line1": "1 58654U 23207A   25357.71418441 -.00000026  00000+0  00000+0 0  9991", "line2": "2 58654  55.5937  68.2298 0002871 275.1516  84.8693  1.86229696 13577"}}, "geometry": {"type": "Point", "coordinates": [-102.80322092979712, -12.89361914405255]}}, {"type": "Feature", "properties": {"norad_id": 58655, "name": "BEIDOU-3 M26 (C48)", "group": "beidou", "lat": -23.231683503052537, "lon": 51.08398746256225, "alt_km": 21527.13445174235, "timestamp": "2025-12-25T14:48:25.042792+00:00", "meta": {"OBJECT_NAME": "BEIDOU-3 M26 (C48)", "OBJECT_ID": "2023-207B", "EPOCH": "2025-12-25T02:56:32.184672", "MEAN_MOTION": 1.8623119, "ECCENTRICITY": 0.00042463, "INCLINATION": 55.5969, "RA_OF_ASC_NODE": 68.1683, "ARG_OF_PERICENTER": 261.3463, "MEAN_ANOMALY": 98.6594, "EPHEMERIS_TYPE": 0, "CLASSIFICATION_TYPE": "U", "NORAD_CAT_ID": 58655, "ELEMENT_SET_NO": 999, "REV_AT_EPOCH": 1358, "BSTAR": 0, "MEAN_MOTION_DOT": -2.7e-07, "MEAN_MOTION_DDOT": 0}, "tle": {"line1": "1 58655U 23207B   25359.12259473 -.00000027  00000+0  00000+0 0  9998", "line2": "2 58655  55.5969  68.1683 0004246 261.3463  98.6594  1.86231190 13582"}}, "geometry": {"type": "Point", "coordinates": [51.08398746256225, -23.231683503052537]}}]}